; KlipperLearn motion diagnostic - NO heating, NO extrusion
; Listen at each block; blocks are separated by 3 s pauses
G28
G90
G1 Z30 F600
G1 X135 Y107 F3000
M400
G4 P3000
; BLOCK 1: axis X, accel 500, speed 50 mm/s, 40 mm strokes x6
SET_VELOCITY_LIMIT ACCEL=500
G1 X155 F3000
G1 X115 F3000
G1 X155 F3000
G1 X115 F3000
G1 X155 F3000
G1 X115 F3000
G1 X155 F3000
G1 X115 F3000
G1 X155 F3000
G1 X115 F3000
G1 X155 F3000
G1 X115 F3000
G1 X135 F3000
M400
G4 P3000
; BLOCK 2: axis X, accel 500, speed 100 mm/s, 40 mm strokes x6
SET_VELOCITY_LIMIT ACCEL=500
G1 X155 F6000
G1 X115 F6000
G1 X155 F6000
G1 X115 F6000
G1 X155 F6000
G1 X115 F6000
G1 X155 F6000
G1 X115 F6000
G1 X155 F6000
G1 X115 F6000
G1 X155 F6000
G1 X115 F6000
G1 X135 F6000
M400
G4 P3000
; BLOCK 3: axis X, accel 500, speed 150 mm/s, 40 mm strokes x6
SET_VELOCITY_LIMIT ACCEL=500
G1 X155 F9000
G1 X115 F9000
G1 X155 F9000
G1 X115 F9000
G1 X155 F9000
G1 X115 F9000
G1 X155 F9000
G1 X115 F9000
G1 X155 F9000
G1 X115 F9000
G1 X155 F9000
G1 X115 F9000
G1 X135 F9000
M400
G4 P3000
; BLOCK 4: axis X, accel 1000, speed 50 mm/s, 40 mm strokes x6
SET_VELOCITY_LIMIT ACCEL=1000
G1 X155 F3000
G1 X115 F3000
G1 X155 F3000
G1 X115 F3000
G1 X155 F3000
G1 X115 F3000
G1 X155 F3000
G1 X115 F3000
G1 X155 F3000
G1 X115 F3000
G1 X155 F3000
G1 X115 F3000
G1 X135 F3000
M400
G4 P3000
; BLOCK 5: axis X, accel 1000, speed 100 mm/s, 40 mm strokes x6
SET_VELOCITY_LIMIT ACCEL=1000
G1 X155 F6000
G1 X115 F6000
G1 X155 F6000
G1 X115 F6000
G1 X155 F6000
G1 X115 F6000
G1 X155 F6000
G1 X115 F6000
G1 X155 F6000
G1 X115 F6000
G1 X155 F6000
G1 X115 F6000
G1 X135 F6000
M400
G4 P3000
; BLOCK 6: axis X, accel 1000, speed 150 mm/s, 40 mm strokes x6
SET_VELOCITY_LIMIT ACCEL=1000
G1 X155 F9000
G1 X115 F9000
G1 X155 F9000
G1 X115 F9000
G1 X155 F9000
G1 X115 F9000
G1 X155 F9000
G1 X115 F9000
G1 X155 F9000
G1 X115 F9000
G1 X155 F9000
G1 X115 F9000
G1 X135 F9000
M400
G4 P3000
; BLOCK 7: axis Y, accel 500, speed 50 mm/s, 40 mm strokes x6
SET_VELOCITY_LIMIT ACCEL=500
G1 Y127 F3000
G1 Y87 F3000
G1 Y127 F3000
G1 Y87 F3000
G1 Y127 F3000
G1 Y87 F3000
G1 Y127 F3000
G1 Y87 F3000
G1 Y127 F3000
G1 Y87 F3000
G1 Y127 F3000
G1 Y87 F3000
G1 Y107 F3000
M400
G4 P3000
; BLOCK 8: axis Y, accel 500, speed 100 mm/s, 40 mm strokes x6
SET_VELOCITY_LIMIT ACCEL=500
G1 Y127 F6000
G1 Y87 F6000
G1 Y127 F6000
G1 Y87 F6000
G1 Y127 F6000
G1 Y87 F6000
G1 Y127 F6000
G1 Y87 F6000
G1 Y127 F6000
G1 Y87 F6000
G1 Y127 F6000
G1 Y87 F6000
G1 Y107 F6000
M400
G4 P3000
; BLOCK 9: axis Y, accel 500, speed 150 mm/s, 40 mm strokes x6
SET_VELOCITY_LIMIT ACCEL=500
G1 Y127 F9000
G1 Y87 F9000
G1 Y127 F9000
G1 Y87 F9000
G1 Y127 F9000
G1 Y87 F9000
G1 Y127 F9000
G1 Y87 F9000
G1 Y127 F9000
G1 Y87 F9000
G1 Y127 F9000
G1 Y87 F9000
G1 Y107 F9000
M400
G4 P3000
; BLOCK 10: axis Y, accel 1000, speed 50 mm/s, 40 mm strokes x6
SET_VELOCITY_LIMIT ACCEL=1000
G1 Y127 F3000
G1 Y87 F3000
G1 Y127 F3000
G1 Y87 F3000
G1 Y127 F3000
G1 Y87 F3000
G1 Y127 F3000
G1 Y87 F3000
G1 Y127 F3000
G1 Y87 F3000
G1 Y127 F3000
G1 Y87 F3000
G1 Y107 F3000
M400
G4 P3000
; BLOCK 11: axis Y, accel 1000, speed 100 mm/s, 40 mm strokes x6
SET_VELOCITY_LIMIT ACCEL=1000
G1 Y127 F6000
G1 Y87 F6000
G1 Y127 F6000
G1 Y87 F6000
G1 Y127 F6000
G1 Y87 F6000
G1 Y127 F6000
G1 Y87 F6000
G1 Y127 F6000
G1 Y87 F6000
G1 Y127 F6000
G1 Y87 F6000
G1 Y107 F6000
M400
G4 P3000
; BLOCK 12: axis Y, accel 1000, speed 150 mm/s, 40 mm strokes x6
SET_VELOCITY_LIMIT ACCEL=1000
G1 Y127 F9000
G1 Y87 F9000
G1 Y127 F9000
G1 Y87 F9000
G1 Y127 F9000
G1 Y87 F9000
G1 Y127 F9000
G1 Y87 F9000
G1 Y127 F9000
G1 Y87 F9000
G1 Y127 F9000
G1 Y87 F9000
G1 Y107 F9000
M400
G4 P3000
SET_VELOCITY_LIMIT ACCEL=1000
M84
